{"type": "FeatureCollection", "features": [{"type": "Feature", "properties": {"name": "Sierra Nevada"}, "geometry": {"type": "Polygon", "coordinates": [[[-121.1, 39.55], [-120.9, 39.7], [-120.6, 39.8], [-120.3, 39.75], [-119.9, 39.55], [-119.5, 39.2], [-119.2, 38.95], [-119.05, 38.7], [-118.9, 38.5], [-118.75, 38.3], [-118.65, 38.1], [-118.55, 37.85], [-118.45, 37.6], [-118.3, 37.35], [-118.2, 37.1], [-118.1, 36.85], [-118.05, 36.6], [-118.0, 36.35], [-117.95, 36.1], [-117.9, 35.8], [-117.8, 35.55], [-118.0, 35.3], [-118.3, 35.15], [-118.7, 35.1], [-119.0, 35.25], [-119.3, 35.55], [-119.6, 35.9], [-119.8, 36.2], [-119.9, 36.5], [-120.0, 36.8], [-120.05, 37.1], [-120.1, 37.4], [-120.2, 37.7], [-120.3, 38.0], [-120.5, 38.3], [-120.6, 38.6], [-120.65, 38.9], [-120.75, 39.1], [-120.9, 39.3], [-121.0, 39.45], [-121.1, 39.55]]]}}]}